ONEWEB-0142             
1 47288U 20100AG  26061.80528782 -.00000376  00000+0 -10811-2 0  9997
2 47288  87.8994  11.7830 0002209  75.7253 284.4121 13.12443227250714
ONEWEB-0143             
1 47289U 20100AH  26061.81530146 -.00000300  00000+0 -87011-3 0  9990
2 47289  87.8994  11.7772 0001846  78.8306 281.3030 13.12442875250699
ONEWEB-0144             
1 47290U 20100AJ  26061.78651034  .00000018  00000+0  14238-4 0  9994
2 47290  87.8999  11.7523 0002173  83.7835 276.3541 13.12440788250610
ONEWEB-0145             
1 47291U 20100AK  26061.60523374  .00000303  00000+0  80757-3 0  9996
2 47291  87.8994  11.8268 0001948  81.2538 278.8811 13.12442346250782
ONEWEB-0146             
1 47292U 20100AL  26061.75430441 -.00000138  00000+0 -41827-3 0  9998
2 47292  87.8992  11.7822 0001419  82.6682 277.4608 13.12444777250716
ONEWEB-0147             
1 47293U 20100AM  26061.79667166 -.00000268  00000+0 -77977-3 0  9998
2 47293  87.9000  11.7538 0001881  89.5257 270.6087 13.12441333250619
ONEWEB-0115             
1 48042U 21025A   26061.75561575  .00000330  00000+0  86793-3 0  9995
2 48042  87.9050 341.3852 0001709  78.7978 281.3343 13.13469984239622
ONEWEB-0152             
1 48043U 21025B   26061.76915555  .00000297  00000+0  77892-3 0  9990
2 48043  87.9047 341.3844 0001631  80.3815 279.7498 13.13469021239582
ONEWEB-0153             
1 48044U 21025C   26061.74715377  .00000142  00000+0  35477-3 0  9991
2 48044  87.9040 341.3942 0001849  77.7548 282.3788 13.13469566239574
ONEWEB-0154             
1 48045U 21025D   26061.81994277  .00000016  00000+0  86380-5 0  9999
2 48045  87.9039 341.3773 0001742  81.9250 278.2077 13.13471271239542
ONEWEB-0116             
1 48046U 21025E   26061.78269640 -.00000061  00000+0 -20244-3 0  9992
2 48046  87.9051 341.3724 0001635  79.2699 280.8614 13.13468275239682
ONEWEB-0150             
1 48047U 21025F   26061.75900170  .00000271  00000+0  70836-3 0  9993
2 48047  87.9051 341.3743 0001822  72.2010 287.9318 13.13469201239579
ONEWEB-0107             
1 48048U 21025G   26061.76069191  .00000282  00000+0  73608-3 0  9996
2 48048  87.9050 341.3695 0002046  77.9014 282.2345 13.13468848239552
ONEWEB-0101             
1 48049U 21025H   26061.79962776 -.00000278  00000+0 -79608-3 0  9994
2 48049  87.9041 341.3883 0001887  82.0839 278.0505 13.13468961239531
ONEWEB-0113             
1 48050U 21025J   26061.78483632 -.00000086  00000+0 -26949-3 0  9991
2 48050  87.9052 341.3113 0001505  81.3066 278.8234 13.13973726239630
ONEWEB-0112             
1 48051U 21025K   26061.76577603  .00000263  00000+0  68480-3 0  9993
2 48051  87.9050 341.3661 0001955  83.7673 276.3679 13.13469236239627
ONEWEB-0156             
1 48052U 21025L   26061.77423529  .00000193  00000+0  49475-3 0  9997
2 48052  87.9052 341.3752 0001890  75.0794 285.0545 13.13468629239609
