[{"OBJECT_NAME":"ONEWEB-0142","OBJECT_ID":"2020-100AG","EPOCH":"2026-03-02T19:19:36.867648","MEAN_MOTION":13.12443227,"ECCENTRICITY":0.0002209,"INCLINATION":87.8994,"RA_OF_ASC_NODE":11.783,"ARG_OF_PERICENTER":75.7253,"MEAN_ANOMALY":284.4121,"EPHEMERIS_TYPE":0,"CLASSIFICATION_TYPE":"U","NORAD_CAT_ID":47288,"ELEMENT_SET_NO":999,"REV_AT_EPOCH":25071,"BSTAR":-0.0010811,"MEAN_MOTION_DOT":-3.76e-6,"MEAN_MOTION_DDOT":0},{"OBJECT_NAME":"ONEWEB-0143","OBJECT_ID":"2020-100AH","EPOCH":"2026-03-02T19:34:02.046144","MEAN_MOTION":13.12442875,"ECCENTRICITY":0.0001846,"INCLINATION":87.8994,"RA_OF_ASC_NODE":11.7772,"ARG_OF_PERICENTER":78.8306,"MEAN_ANOMALY":281.303,"EPHEMERIS_TYPE":0,"CLASSIFICATION_TYPE":"U","NORAD_CAT_ID":47289,"ELEMENT_SET_NO":999,"REV_AT_EPOCH":25069,"BSTAR":-0.00087011,"MEAN_MOTION_DOT":-3.0e-6,"MEAN_MOTION_DDOT":0},{"OBJECT_NAME":"ONEWEB-0144","OBJECT_ID":"2020-100AJ","EPOCH":"2026-03-02T18:52:34.493376","MEAN_MOTION":13.12440788,"ECCENTRICITY":0.0002173,"INCLINATION":87.8999,"RA_OF_ASC_NODE":11.7523,"ARG_OF_PERICENTER":83.7835,"MEAN_ANOMALY":276.3541,"EPHEMERIS_TYPE":0,"CLASSIFICATION_TYPE":"U","NORAD_CAT_ID":47290,"ELEMENT_SET_NO":999,"REV_AT_EPOCH":25061,"BSTAR":1.4238e-5,"MEAN_MOTION_DOT":1.8e-7,"MEAN_MOTION_DDOT":0},{"OBJECT_NAME":"ONEWEB-0145","OBJECT_ID":"2020-100AK","EPOCH":"2026-03-02T14:31:32.195136","MEAN_MOTION":13.12442346,"ECCENTRICITY":0.0001948,"INCLINATION":87.8994,"RA_OF_ASC_NODE":11.8268,"ARG_OF_PERICENTER":81.2538,"MEAN_ANOMALY":278.8811,"EPHEMERIS_TYPE":0,"CLASSIFICATION_TYPE":"U","NORAD_CAT_ID":47291,"ELEMENT_SET_NO":999,"REV_AT_EPOCH":25078,"BSTAR":0.00080757,"MEAN_MOTION_DOT":3.03e-6,"MEAN_MOTION_DDOT":0},{"OBJECT_NAME":"ONEWEB-0146","OBJECT_ID":"2020-100AL","EPOCH":"2026-03-02T18:06:11.901024","MEAN_MOTION":13.12444777,"ECCENTRICITY":0.0001419,"INCLINATION":87.8992,"RA_OF_ASC_NODE":11.7822,"ARG_OF_PERICENTER":82.6682,"MEAN_ANOMALY":277.4608,"EPHEMERIS_TYPE":0,"CLASSIFICATION_TYPE":"U","NORAD_CAT_ID":47292,"ELEMENT_SET_NO":999,"REV_AT_EPOCH":25071,"BSTAR":-0.00041827,"MEAN_MOTION_DOT":-1.38e-6,"MEAN_MOTION_DDOT":0},{"OBJECT_NAME":"ONEWEB-0147","OBJECT_ID":"2020-100AM","EPOCH":"2026-03-02T19:07:12.431424","MEAN_MOTION":13.12441333,"ECCENTRICITY":0.0001881,"INCLINATION":87.9,"RA_OF_ASC_NODE":11.7538,"ARG_OF_PERICENTER":89.5257,"MEAN_ANOMALY":270.6087,"EPHEMERIS_TYPE":0,"CLASSIFICATION_TYPE":"U","NORAD_CAT_ID":47293,"ELEMENT_SET_NO":999,"REV_AT_EPOCH":25061,"BSTAR":-0.00077977,"MEAN_MOTION_DOT":-2.68e-6,"MEAN_MOTION_DDOT":0},{"OBJECT_NAME":"ONEWEB-0115","OBJECT_ID":"2021-025A","EPOCH":"2026-03-02T18:08:05.200800","MEAN_MOTION":13.13469984,"ECCENTRICITY":0.0001709,"INCLINATION":87.905,"RA_OF_ASC_NODE":341.3852,"ARG_OF_PERICENTER":78.7978,"MEAN_ANOMALY":281.3343,"EPHEMERIS_TYPE":0,"CLASSIFICATION_TYPE":"U","NORAD_CAT_ID":48042,"ELEMENT_SET_NO":999,"REV_AT_EPOCH":23962,"BSTAR":0.00086793,"MEAN_MOTION_DOT":3.3e-6,"MEAN_MOTION_DDOT":0},{"OBJECT_NAME":"ONEWEB-0152","OBJECT_ID":"2021-025B","EPOCH":"2026-03-02T18:27:35.039520","MEAN_MOTION":13.13469021,"ECCENTRICITY":0.0001631,"INCLINATION":87.9047,"RA_OF_ASC_NODE":341.3844,"ARG_OF_PERICENTER":80.3815,"MEAN_ANOMALY":279.7498,"EPHEMERIS_TYPE":0,"CLASSIFICATION_TYPE":"U","NORAD_CAT_ID":48043,"ELEMENT_SET_NO":999,"REV_AT_EPOCH":23958,"BSTAR":0.00077892,"MEAN_MOTION_DOT":2.97e-6,"MEAN_MOTION_DDOT":0},{"OBJECT_NAME":"ONEWEB-0153","OBJECT_ID":"2021-025C","EPOCH":"2026-03-02T17:55:54.085728","MEAN_MOTION":13.13469566,"ECCENTRICITY":0.0001849,"INCLINATION":87.904,"RA_OF_ASC_NODE":341.3942,"ARG_OF_PERICENTER":77.7548,"MEAN_ANOMALY":282.3788,"EPHEMERIS_TYPE":0,"CLASSIFICATION_TYPE":"U","NORAD_CAT_ID":48044,"ELEMENT_SET_NO":999,"REV_AT_EPOCH":23957,"BSTAR":0.00035477,"MEAN_MOTION_DOT":1.42e-6,"MEAN_MOTION_DDOT":0},{"OBJECT_NAME":"ONEWEB-0154","OBJECT_ID":"2021-025D","EPOCH":"2026-03-02T19:40:43.055328","MEAN_MOTION":13.13471271,"ECCENTRICITY":0.0001742,"INCLINATION":87.9039,"RA_OF_ASC_NODE":341.3773,"ARG_OF_PERICENTER":81.925,"MEAN_ANOMALY":278.2077,"EPHEMERIS_TYPE":0,"CLASSIFICATION_TYPE":"U","NORAD_CAT_ID":48045,"ELEMENT_SET_NO":999,"REV_AT_EPOCH":23954,"BSTAR":8.638e-6,"MEAN_MOTION_DOT":1.6e-7,"MEAN_MOTION_DDOT":0},{"OBJECT_NAME":"ONEWEB-0116","OBJECT_ID":"2021-025E","EPOCH":"2026-03-02T18:47:04.968960","MEAN_MOTION":13.13468275,"ECCENTRICITY":0.0001635,"INCLINATION":87.9051,"RA_OF_ASC_NODE":341.3724,"ARG_OF_PERICENTER":79.2699,"MEAN_ANOMALY":280.8614,"EPHEMERIS_TYPE":0,"CLASSIFICATION_TYPE":"U","NORAD_CAT_ID":48046,"ELEMENT_SET_NO":999,"REV_AT_EPOCH":23968,"BSTAR":-0.00020244,"MEAN_MOTION_DOT":-6.1e-7,"MEAN_MOTION_DDOT":0},{"OBJECT_NAME":"ONEWEB-0150","OBJECT_ID":"2021-025F","EPOCH":"2026-03-02T18:12:57.746880","MEAN_MOTION":13.13469201,"ECCENTRICITY":0.0001822,"INCLINATION":87.9051,"RA_OF_ASC_NODE":341.3743,"ARG_OF_PERICENTER":72.201,"MEAN_ANOMALY":287.9318,"EPHEMERIS_TYPE":0,"CLASSIFICATION_TYPE":"U","NORAD_CAT_ID":48047,"ELEMENT_SET_NO":999,"REV_AT_EPOCH":23957,"BSTAR":0.00070836,"MEAN_MOTION_DOT":2.71e-6,"MEAN_MOTION_DDOT":0},{"OBJECT_NAME":"ONEWEB-0107","OBJECT_ID":"2021-025G","EPOCH":"2026-03-02T18:15:23.781024","MEAN_MOTION":13.13468848,"ECCENTRICITY":0.0002046,"INCLINATION":87.905,"RA_OF_ASC_NODE":341.3695,"ARG_OF_PERICENTER":77.9014,"MEAN_ANOMALY":282.2345,"EPHEMERIS_TYPE":0,"CLASSIFICATION_TYPE":"U","NORAD_CAT_ID":48048,"ELEMENT_SET_NO":999,"REV_AT_EPOCH":23955,"BSTAR":0.00073608,"MEAN_MOTION_DOT":2.82e-6,"MEAN_MOTION_DDOT":0},{"OBJECT_NAME":"ONEWEB-0101","OBJECT_ID":"2021-025H","EPOCH":"2026-03-02T19:11:27.838464","MEAN_MOTION":13.13468961,"ECCENTRICITY":0.0001887,"INCLINATION":87.9041,"RA_OF_ASC_NODE":341.3883,"ARG_OF_PERICENTER":82.0839,"MEAN_ANOMALY":278.0505,"EPHEMERIS_TYPE":0,"CLASSIFICATION_TYPE":"U","NORAD_CAT_ID":48049,"ELEMENT_SET_NO":999,"REV_AT_EPOCH":23953,"BSTAR":-0.00079608,"MEAN_MOTION_DOT":-2.78e-6,"MEAN_MOTION_DDOT":0},{"OBJECT_NAME":"ONEWEB-0113","OBJECT_ID":"2021-025J","EPOCH":"2026-03-02T18:50:09.858048","MEAN_MOTION":13.13973726,"ECCENTRICITY":0.0001505,"INCLINATION":87.9052,"RA_OF_ASC_NODE":341.3113,"ARG_OF_PERICENTER":81.3066,"MEAN_ANOMALY":278.8234,"EPHEMERIS_TYPE":0,"CLASSIFICATION_TYPE":"U","NORAD_CAT_ID":48050,"ELEMENT_SET_NO":999,"REV_AT_EPOCH":23963,"BSTAR":-0.00026949,"MEAN_MOTION_DOT":-8.6e-7,"MEAN_MOTION_DDOT":0},{"OBJECT_NAME":"ONEWEB-0112","OBJECT_ID":"2021-025K","EPOCH":"2026-03-02T18:22:43.048992","MEAN_MOTION":13.13469236,"ECCENTRICITY":0.0001955,"INCLINATION":87.905,"RA_OF_ASC_NODE":341.3661,"ARG_OF_PERICENTER":83.7673,"MEAN_ANOMALY":276.3679,"EPHEMERIS_TYPE":0,"CLASSIFICATION_TYPE":"U","NORAD_CAT_ID":48051,"ELEMENT_SET_NO":999,"REV_AT_EPOCH":23962,"BSTAR":0.0006848,"MEAN_MOTION_DOT":2.63e-6,"MEAN_MOTION_DDOT":0},{"OBJECT_NAME":"ONEWEB-0156","OBJECT_ID":"2021-025L","EPOCH":"2026-03-02T18:34:53.929056","MEAN_MOTION":13.13468629,"ECCENTRICITY":0.000189,"INCLINATION":87.9052,"RA_OF_ASC_NODE":341.3752,"ARG_OF_PERICENTER":75.0794,"MEAN_ANOMALY":285.0545,"EPHEMERIS_TYPE":0,"CLASSIFICATION_TYPE":"U","NORAD_CAT_ID":48052,"ELEMENT_SET_NO":999,"REV_AT_EPOCH":23960,"BSTAR":0.00049475,"MEAN_MOTION_DOT":1.93e-6,"MEAN_MOTION_DDOT":0}]
